NORAD_CAT_ID,OBJECT_NAME,OBJECT_TYPE,EPOCH,MEAN_MOTION,ECCENTRICITY,INCLINATION,RA_OF_ASC_NODE,ARG_OF_PERICENTER,MEAN_ANOMALY,BSTAR,MEAN_MOTION_DOT,MEAN_MOTION_DDOT,TLE_LINE0,TLE_LINE1,TLE_LINE2,SEMIMAJOR_AXIS,PERIOD,APOGEE,PERIGEE,DECAYED
52610.0,STARLINK-3998,PAYLOAD,2024-08-05 16:40:43,15.08854909,0.0001575,53.2174,12.3028,102.2032,257.9137,0.00043629,6.665e-05,0.0,0 STARLINK-3998,1 52610U 22052N   24218.69495068  .00006665  00000-0  43629-3 0  9999,2 52610  53.2174  12.3028 0001575 102.2032 257.9137 15.08854909123078,6917.835,95.437,540.789,538.61,0.0
52610.0,STARLINK-3998,PAYLOAD,2024-08-06 03:48:25,15.08845453,0.0001555,53.218,10.2252,85.9007,274.2162,0.00030335,4.544e-05,0.0,0 STARLINK-3998,1 52610U 22052N   24219.15863275  .00004544  00000-0  30335-3 0  9994,2 52610  53.2180  10.2252 0001555  85.9007 274.2162 15.08845453123511,6917.864,95.437,540.804,538.653,0.0
52610.0,STARLINK-3998,PAYLOAD,2024-08-06 13:20:45,15.08828921,0.0001495,53.2153,8.443,86.9782,273.1381,-0.00017015,-2.994e-05,0.0,0 STARLINK-3998,1 52610U 22052N   24219.55607870 -.00002994  00000-0 -17015-3 0  9994,2 52610  53.2153   8.4430 0001495  86.9782 273.1381 15.08828921123200,6917.914,95.438,540.813,538.745,0.0
52610.0,STARLINK-3998,PAYLOAD,2024-08-06 19:42:17,15.08833133,0.0001637,53.2186,7.2525,97.5456,262.5722,0.0013066,0.00020564,0.0,0 STARLINK-3998,1 52610U 22052N   24219.82104088  .00020564  00000-0  13066-2 0  9999,2 52610  53.2186   7.2525 0001637  97.5456 262.5722 15.08833133123619,6917.901,95.438,540.899,538.634,0.0
52610.0,STARLINK-3998,PAYLOAD,2024-08-08 13:02:19,15.08848673,0.0001506,53.2179,359.5191,99.6494,260.4668,0.00046467,7.117e-05,0.0,0 STARLINK-3998,1 52610U 22052N   24221.54328334  .00007117  00000-0  46467-3 0  9994,2 52610  53.2179 359.5191 0001506  99.6494 260.4668 15.08848673123502,6917.854,95.437,540.761,538.677,0.0
52610.0,STARLINK-3998,PAYLOAD,2024-08-08 14:37:42,15.088509,0.0001525,53.2181,359.2219,99.7537,260.3627,0.00050864,7.819e-05,0.0,0 STARLINK-3998,1 52610U 22052N   24221.60952261  .00007819  00000-0  50864-3 0  9998,2 52610  53.2181 359.2219 0001525  99.7537 260.3627 15.08850900123884,6917.847,95.437,540.767,538.657,0.0
52610.0,STARLINK-3998,PAYLOAD,2024-08-09 09:42:20,15.0884684,0.000116,53.2172,355.6531,90.5599,269.5526,0.00032761,4.931e-05,0.0,0 STARLINK-3998,1 52610U 22052N   24222.40440104  .00004931  00000-0  32761-3 0  9993,2 52610  53.2172 355.6531 0001160  90.5599 269.5526 15.08846840124005,6917.859,95.437,540.527,538.922,0.0
52610.0,STARLINK-3998,PAYLOAD,2024-08-09 12:53:06,15.08853762,0.0001113,53.2196,355.0674,84.297,275.8149,0.00042954,6.557e-05,0.0,0 STARLINK-3998,1 52610U 22052N   24222.53688044  .00006557  00000-0  42954-3 0  9995,2 52610  53.2196 355.0674 0001113  84.2970 275.8149 15.08853762123656,6917.838,95.437,540.473,538.933,0.0
52610.0,STARLINK-3998,PAYLOAD,2024-08-09 16:03:52,15.08861014,0.000142,53.2188,354.4701,112.1152,247.9991,0.00096897,0.00015176,0.0,0 STARLINK-3998,1 52610U 22052N   24222.66935812  .00015176  00000-0  96897-3 0  9999,2 52610  53.2188 354.4701 0001420 112.1152 247.9991 15.08861014124043,6917.816,95.436,540.663,538.699,0.0
52610.0,STARLINK-3998,PAYLOAD,2024-08-10 12:43:53,15.08854302,0.0001137,53.2185,350.6074,124.2978,235.8122,0.0007374,0.00011472,0.0,0 STARLINK-3998,1 52610U 22052N   24223.53047668  .00011472  00000-0  73740-3 0  9996,2 52610  53.2185 350.6074 0001137 124.2978 235.8122 15.08854302124174,6917.837,95.437,540.488,538.915,0.0
52610.0,STARLINK-3998,PAYLOAD,2024-08-10 14:19:16,15.0885566,0.0001651,53.2185,350.312,129.7756,230.3381,0.00073397,0.00011417,0.0,0 STARLINK-3998,1 52610U 22052N   24223.59671573  .00011417  00000-0  73397-3 0  9997,2 52610  53.2185 350.3120 0001651 129.7756 230.3381 15.08855660123813,6917.833,95.437,540.84,538.555,0.0
52610.0,STARLINK-3998,PAYLOAD,2024-08-10 19:05:25,15.08869007,0.0001124,53.2178,349.4104,81.4041,278.7078,0.0012694,0.00019988,0.0,0 STARLINK-3998,1 52610U 22052N   24223.79543381  .00019988  00000-0  12694-2 0  9997,2 52610  53.2178 349.4104 0001124  81.4041 278.7078 15.08869007123844,6917.792,95.436,540.434,538.879,0.0
52610.0,STARLINK-3998,PAYLOAD,2024-08-11 01:26:58,15.08827469,0.0002033,53.2169,348.2139,76.8215,283.3003,0.0010943,0.00017165,0.0,0 STARLINK-3998,1 52610U 22052N   24224.06040451  .00017165  00000-0  10943-2 0  9998,2 52610  53.2169 348.2139 0002033  76.8215 283.3003 15.08827469124252,6917.919,95.438,541.19,538.377,0.0
52610.0,STARLINK-3998,PAYLOAD,2024-08-12 07:39:18,15.08872122,0.0002351,53.2158,342.5762,85.1559,274.9701,0.0015844,0.0002504,0.0,0 STARLINK-3998,1 52610U 22052N   24225.31896659  .00025040  00000-0  15844-2 0  9992,2 52610  53.2158 342.5762 0002351  85.1559 274.9701 15.08872122124444,6917.782,95.436,541.274,538.021,0.0
52610.0,STARLINK-3998,PAYLOAD,2024-08-12 17:11:35,15.08930679,0.0002647,53.2151,340.7927,82.1476,277.9816,0.0032828,0.00052479,0.0,0 STARLINK-3998,1 52610U 22052N   24225.71638815  .00052479  00000-0  32828-2 0  9991,2 52610  53.2151 340.7927 0002647  82.1476 277.9816 15.08930679124502,6917.603,95.432,541.299,537.637,0.0
52610.0,STARLINK-3998,PAYLOAD,2024-08-13 01:08:31,15.08883541,0.0003045,53.2162,339.3006,84.6339,275.5001,0.0012979,0.00020454,0.0,0 STARLINK-3998,1 52610U 22052N   24226.04758639  .00020454  00000-0  12979-2 0  9998,2 52610  53.2162 339.3006 0003045  84.6339 275.5001 15.08883541124554,6917.747,95.435,541.719,537.506,0.0
52610.0,STARLINK-3998,PAYLOAD,2024-08-13 07:30:04,15.08803281,0.0002499,53.2139,338.1152,81.3249,278.8026,-0.0024751,-0.00039427,0.0,0 STARLINK-3998,1 52610U 22052N   24226.31255560 -.00039427  00000-0 -24751-2 0  9996,2 52610  53.2139 338.1152 0002499  81.3249 278.8026 15.08803281124593,6917.993,95.44,541.586,538.129,0.0
52610.0,STARLINK-3998,PAYLOAD,2024-08-13 13:51:38,15.08783514,0.0001669,53.2144,336.9257,81.7843,278.3339,-0.00011196,-2.067e-05,0.0,0 STARLINK-3998,1 52610U 22052N   24226.57752759 -.00002067  00000-0 -11196-3 0  9996,2 52610  53.2144 336.9257 0001669  81.7843 278.3339 15.08783514124265,6918.053,95.441,541.073,538.763,0.0
52610.0,STARLINK-3998,PAYLOAD,2024-08-13 17:02:25,15.0878069,0.000145,53.2139,336.3297,81.7225,278.3931,0.0017159,0.00027082,0.0,0 STARLINK-3998,1 52610U 22052N   24226.71001527  .00027082  00000-0  17159-2 0  9998,2 52610  53.2139 336.3297 0001450  81.7225 278.3931 15.08780690124281,6918.062,95.441,540.93,538.924,0.0
52610.0,STARLINK-3998,PAYLOAD,2024-08-14 00:59:21,15.0881428,0.000137,53.2159,334.843,81.9419,278.1729,0.002568,0.0004079,0.0,0 STARLINK-3998,1 52610U 22052N   24227.04122326  .00040790  00000-0  25680-2 0  9995,2 52610  53.2159 334.8430 0001370  81.9419 278.1729 15.08814280124706,6917.959,95.439,540.772,538.876,0.0
52610.0,STARLINK-3998,PAYLOAD,2024-08-14 13:42:26,15.08863318,0.0001377,53.2157,332.4622,87.3247,272.7903,0.0023788,0.00037798,0.0,0 STARLINK-3998,1 52610U 22052N   24227.57114153  .00037798  00000-0  23788-2 0  9993,2 52610  53.2157 332.4622 0001377  87.3247 272.7903 15.08863318124415,6917.809,95.436,540.627,538.722,0.0
52610.0,STARLINK-3998,PAYLOAD,2024-08-15 13:33:13,15.08880485,0.0001378,53.2173,328.0016,72.2749,287.8393,0.0022585,0.00035879,0.0,0 STARLINK-3998,1 52610U 22052N   24228.56473822  .00035879  00000-0  22585-2 0  9996,2 52610  53.2173 328.0016 0001378  72.2749 287.8393 15.08880485124562,6917.757,95.435,540.575,538.668,0.0
52610.0,STARLINK-3998,PAYLOAD,2024-08-15 18:19:22,15.08888591,9.58e-05,53.2175,327.1098,55.2814,304.8268,0.0022387,0.00035568,0.0,0 STARLINK-3998,1 52610U 22052N   24228.76345290  .00035568  00000-0  22387-2 0  9990,2 52610  53.2175 327.1098 0000958  55.2814 304.8268 15.08888591124962,6917.732,95.434,540.26,538.934,0.0
52610.0,STARLINK-3998,PAYLOAD,2024-08-15 23:05:32,15.08831044,0.0003423,53.2155,326.2123,90.8357,269.3027,0.0020044,0.00031751,0.0,0 STARLINK-3998,1 52610U 22052N   24228.96218290  .00031751  00000-0  20044-2 0  9999,2 52610  53.2155 326.2123 0003423  90.8357 269.3027 15.08831044124998,6917.908,95.438,542.141,537.405,0.0
52610.0,STARLINK-3998,PAYLOAD,2024-08-16 10:13:13,15.08863532,0.0001964,53.2171,324.1341,78.6157,281.5056,0.0020797,0.00032987,0.0,0 STARLINK-3998,1 52610U 22052N   24229.42585591  .00032987  00000-0  20797-2 0  9999,2 52610  53.2171 324.1341 0001964  78.6157 281.5056 15.08863532124697,6917.808,95.436,541.032,538.315,0.0
52610.0,STARLINK-3998,PAYLOAD,2024-08-17 10:04:01,15.08830729,0.000134,53.217,319.675,98.5628,261.5516,0.0014666,0.00023124,0.0,0 STARLINK-3998,1 52610U 22052N   24230.41945953  .00023124  00000-0  14666-2 0  9993,2 52610  53.2170 319.6750 0001340  98.5628 261.5516 15.08830729125211,6917.909,95.438,540.701,538.847,0.0
52610.0,STARLINK-3998,PAYLOAD,2024-08-18 05:08:38,15.08864431,0.0001596,53.2176,316.1071,104.4707,255.6462,0.001689,0.00026713,0.0,0 STARLINK-3998,1 52610U 22052N   24231.21433780  .00026713  00000-0  16890-2 0  9990,2 52610  53.2176 316.1071 0001596 104.4707 255.6462 15.08864431124965,6917.806,95.436,540.775,538.567,0.0
52610.0,STARLINK-3998,PAYLOAD,2024-08-18 13:05:33,15.08871278,0.0001345,53.2164,314.622,84.3292,275.7853,0.0010572,0.00016592,0.0,0 STARLINK-3998,1 52610U 22052N   24231.54553112  .00016592  00000-0  10572-2 0  9993,2 52610  53.2164 314.6220 0001345  84.3292 275.7853 15.08871278125389,6917.785,95.436,540.58,538.719,0.0
52610.0,STARLINK-3998,PAYLOAD,2024-08-19 04:59:25,15.08856283,0.0001511,53.2166,311.6477,92.5921,267.5244,0.00038034,5.773e-05,0.0,0 STARLINK-3998,1 52610U 22052N   24232.20793018  .00005773  00000-0  38034-3 0  9991,2 52610  53.2166 311.6477 0001511  92.5921 267.5244 15.08856283125480,6917.831,95.437,540.741,538.65,0.0
52610.0,STARLINK-3998,PAYLOAD,2024-08-19 14:31:44,15.08835941,0.0001449,53.2153,309.8643,82.9403,277.1754,3.0022e-05,1.9e-06,0.0,0 STARLINK-3998,1 52610U 22052N   24232.60537586  .00000190  00000-0  30022-4 0  9999,2 52610  53.2153 309.8643 0001449  82.9403 277.1754 15.08835941125175,6917.893,95.438,540.76,538.755,0.0
